<?xml version="1.0" encoding="UTF-8"?>
<ndm xmlns:xsi="http://www.w3.org/2001/XMLSchema-instance" xsi:noNamespaceSchemaLocation="https://sanaregistry.org/r/ndmxml_unqualified/ndmxml-2.0.0-master-2.0.xsd">
<omm id="CCSDS_OMM_VERS" version="2.0">
<header><CREATION_DATE/><ORIGINATOR/></header><body><segment><metadata><OBJECT_NAME>ONEWEB-0158</OBJECT_NAME><OBJECT_ID>2021-025N</OBJECT_ID><CENTER_NAME>EARTH</CENTER_NAME><REF_FRAME>TEME</REF_FRAME><TIME_SYSTEM>UTC</TIME_SYSTEM><MEAN_ELEMENT_THEORY>SGP4</MEAN_ELEMENT_THEORY></metadata><data><meanElements><EPOCH>2025-02-15T17:39:01.128672</EPOCH><MEAN_MOTION>13.13468591</MEAN_MOTION><ECCENTRICITY>.0001691</ECCENTRICITY><INCLINATION>87.8882</INCLINATION><RA_OF_ASC_NODE>56.9131</RA_OF_ASC_NODE><ARG_OF_PERICENTER>89.0332</ARG_OF_PERICENTER><MEAN_ANOMALY>271.0991</MEAN_ANOMALY></meanElements><tleParameters><EPHEMERIS_TYPE>0</EPHEMERIS_TYPE><CLASSIFICATION_TYPE>U</CLASSIFICATION_TYPE><NORAD_CAT_ID>48054</NORAD_CAT_ID><ELEMENT_SET_NO>999</ELEMENT_SET_NO><REV_AT_EPOCH>18977</REV_AT_EPOCH><BSTAR>-.55665E-3</BSTAR><MEAN_MOTION_DOT>-.191E-5</MEAN_MOTION_DOT><MEAN_MOTION_DDOT>0</MEAN_MOTION_DDOT></tleParameters></data></segment></body></omm>
<omm id="CCSDS_OMM_VERS" version="2.0">
<header><CREATION_DATE/><ORIGINATOR/></header><body><segment><metadata><OBJECT_NAME>ONEWEB-0157</OBJECT_NAME><OBJECT_ID>2021-025P</OBJECT_ID><CENTER_NAME>EARTH</CENTER_NAME><REF_FRAME>TEME</REF_FRAME><TIME_SYSTEM>UTC</TIME_SYSTEM><MEAN_ELEMENT_THEORY>SGP4</MEAN_ELEMENT_THEORY></metadata><data><meanElements><EPOCH>2025-02-15T12:44:13.181568</EPOCH><MEAN_MOTION>13.13469473</MEAN_MOTION><ECCENTRICITY>.0002113</ECCENTRICITY><INCLINATION>87.8884</INCLINATION><RA_OF_ASC_NODE>56.9661</RA_OF_ASC_NODE><ARG_OF_PERICENTER>78.1581</ARG_OF_PERICENTER><MEAN_ANOMALY>281.9785</MEAN_ANOMALY></meanElements><tleParameters><EPHEMERIS_TYPE>0</EPHEMERIS_TYPE><CLASSIFICATION_TYPE>U</CLASSIFICATION_TYPE><NORAD_CAT_ID>48055</NORAD_CAT_ID><ELEMENT_SET_NO>999</ELEMENT_SET_NO><REV_AT_EPOCH>18969</REV_AT_EPOCH><BSTAR>-.18516E-3</BSTAR><MEAN_MOTION_DOT>-.55E-6</MEAN_MOTION_DOT><MEAN_MOTION_DDOT>0</MEAN_MOTION_DDOT></tleParameters></data></segment></body></omm>
<omm id="CCSDS_OMM_VERS" version="2.0">
<header><CREATION_DATE/><ORIGINATOR/></header><body><segment><metadata><OBJECT_NAME>ONEWEB-0162</OBJECT_NAME><OBJECT_ID>2021-025Q</OBJECT_ID><CENTER_NAME>EARTH</CENTER_NAME><REF_FRAME>TEME</REF_FRAME><TIME_SYSTEM>UTC</TIME_SYSTEM><MEAN_ELEMENT_THEORY>SGP4</MEAN_ELEMENT_THEORY></metadata><data><meanElements><EPOCH>2025-02-16T00:39:32.048928</EPOCH><MEAN_MOTION>13.13468097</MEAN_MOTION><ECCENTRICITY>.0001816</ECCENTRICITY><INCLINATION>87.8880</INCLINATION><RA_OF_ASC_NODE>56.8595</RA_OF_ASC_NODE><ARG_OF_PERICENTER>88.7900</ARG_OF_PERICENTER><MEAN_ANOMALY>271.3437</MEAN_ANOMALY></meanElements><tleParameters><EPHEMERIS_TYPE>0</EPHEMERIS_TYPE><CLASSIFICATION_TYPE>U</CLASSIFICATION_TYPE><NORAD_CAT_ID>48056</NORAD_CAT_ID><ELEMENT_SET_NO>999</ELEMENT_SET_NO><REV_AT_EPOCH>18970</REV_AT_EPOCH><BSTAR>.33998E-3</BSTAR><MEAN_MOTION_DOT>.137E-5</MEAN_MOTION_DOT><MEAN_MOTION_DDOT>0</MEAN_MOTION_DDOT></tleParameters></data></segment></body></omm>
<omm id="CCSDS_OMM_VERS" version="2.0">
<header><CREATION_DATE/><ORIGINATOR/></header><body><segment><metadata><OBJECT_NAME>ONEWEB-0155</OBJECT_NAME><OBJECT_ID>2021-025R</OBJECT_ID><CENTER_NAME>EARTH</CENTER_NAME><REF_FRAME>TEME</REF_FRAME><TIME_SYSTEM>UTC</TIME_SYSTEM><MEAN_ELEMENT_THEORY>SGP4</MEAN_ELEMENT_THEORY></metadata><data><meanElements><EPOCH>2025-02-15T17:50:27.244032</EPOCH><MEAN_MOTION>13.13468472</MEAN_MOTION><ECCENTRICITY>.0002053</ECCENTRICITY><INCLINATION>87.8879</INCLINATION><RA_OF_ASC_NODE>56.9303</RA_OF_ASC_NODE><ARG_OF_PERICENTER>89.1039</ARG_OF_PERICENTER><MEAN_ANOMALY>271.0325</MEAN_ANOMALY></meanElements><tleParameters><EPHEMERIS_TYPE>0</EPHEMERIS_TYPE><CLASSIFICATION_TYPE>U</CLASSIFICATION_TYPE><NORAD_CAT_ID>48057</NORAD_CAT_ID><ELEMENT_SET_NO>999</ELEMENT_SET_NO><REV_AT_EPOCH>18982</REV_AT_EPOCH><BSTAR>-.70777E-3</BSTAR><MEAN_MOTION_DOT>-.246E-5</MEAN_MOTION_DOT><MEAN_MOTION_DDOT>0</MEAN_MOTION_DDOT></tleParameters></data></segment></body></omm>
<omm id="CCSDS_OMM_VERS" version="2.0">
<header><CREATION_DATE/><ORIGINATOR/></header><body><segment><metadata><OBJECT_NAME>ONEWEB-0149</OBJECT_NAME><OBJECT_ID>2021-025S</OBJECT_ID><CENTER_NAME>EARTH</CENTER_NAME><REF_FRAME>TEME</REF_FRAME><TIME_SYSTEM>UTC</TIME_SYSTEM><MEAN_ELEMENT_THEORY>SGP4</MEAN_ELEMENT_THEORY></metadata><data><meanElements><EPOCH>2025-02-15T21:59:32.956224</EPOCH><MEAN_MOTION>13.13471837</MEAN_MOTION><ECCENTRICITY>.0001637</ECCENTRICITY><INCLINATION>87.8880</INCLINATION><RA_OF_ASC_NODE>56.8906</RA_OF_ASC_NODE><ARG_OF_PERICENTER>86.7820</ARG_OF_PERICENTER><MEAN_ANOMALY>273.3496</MEAN_ANOMALY></meanElements><tleParameters><EPHEMERIS_TYPE>0</EPHEMERIS_TYPE><CLASSIFICATION_TYPE>U</CLASSIFICATION_TYPE><NORAD_CAT_ID>48058</NORAD_CAT_ID><ELEMENT_SET_NO>999</ELEMENT_SET_NO><REV_AT_EPOCH>18965</REV_AT_EPOCH><BSTAR>-.34461E-4</BSTAR><MEAN_MOTION_DOT>0</MEAN_MOTION_DOT><MEAN_MOTION_DDOT>0</MEAN_MOTION_DDOT></tleParameters></data></segment></body></omm>
<omm id="CCSDS_OMM_VERS" version="2.0">
<header><CREATION_DATE/><ORIGINATOR/></header><body><segment><metadata><OBJECT_NAME>ONEWEB-0148</OBJECT_NAME><OBJECT_ID>2021-025T</OBJECT_ID><CENTER_NAME>EARTH</CENTER_NAME><REF_FRAME>TEME</REF_FRAME><TIME_SYSTEM>UTC</TIME_SYSTEM><MEAN_ELEMENT_THEORY>SGP4</MEAN_ELEMENT_THEORY></metadata><data><meanElements><EPOCH>2025-02-15T22:58:57.730368</EPOCH><MEAN_MOTION>13.13467141</MEAN_MOTION><ECCENTRICITY>.0001468</ECCENTRICITY><INCLINATION>87.8885</INCLINATION><RA_OF_ASC_NODE>56.9019</RA_OF_ASC_NODE><ARG_OF_PERICENTER>69.1317</ARG_OF_PERICENTER><MEAN_ANOMALY>290.9969</MEAN_ANOMALY></meanElements><tleParameters><EPHEMERIS_TYPE>0</EPHEMERIS_TYPE><CLASSIFICATION_TYPE>U</CLASSIFICATION_TYPE><NORAD_CAT_ID>48059</NORAD_CAT_ID><ELEMENT_SET_NO>999</ELEMENT_SET_NO><REV_AT_EPOCH>18978</REV_AT_EPOCH><BSTAR>-.34132E-3</BSTAR><MEAN_MOTION_DOT>-.112E-5</MEAN_MOTION_DOT><MEAN_MOTION_DDOT>0</MEAN_MOTION_DDOT></tleParameters></data></segment></body></omm>
<omm id="CCSDS_OMM_VERS" version="2.0">
<header><CREATION_DATE/><ORIGINATOR/></header><body><segment><metadata><OBJECT_NAME>ONEWEB-0160</OBJECT_NAME><OBJECT_ID>2021-025U</OBJECT_ID><CENTER_NAME>EARTH</CENTER_NAME><REF_FRAME>TEME</REF_FRAME><TIME_SYSTEM>UTC</TIME_SYSTEM><MEAN_ELEMENT_THEORY>SGP4</MEAN_ELEMENT_THEORY></metadata><data><meanElements><EPOCH>2025-02-16T01:11:30.220512</EPOCH><MEAN_MOTION>13.13467943</MEAN_MOTION><ECCENTRICITY>.0001917</ECCENTRICITY><INCLINATION>87.8882</INCLINATION><RA_OF_ASC_NODE>56.8795</RA_OF_ASC_NODE><ARG_OF_PERICENTER>116.6480</ARG_OF_PERICENTER><MEAN_ANOMALY>243.4845</MEAN_ANOMALY></meanElements><tleParameters><EPHEMERIS_TYPE>0</EPHEMERIS_TYPE><CLASSIFICATION_TYPE>U</CLASSIFICATION_TYPE><NORAD_CAT_ID>48060</NORAD_CAT_ID><ELEMENT_SET_NO>999</ELEMENT_SET_NO><REV_AT_EPOCH>18974</REV_AT_EPOCH><BSTAR>-.99331E-3</BSTAR><MEAN_MOTION_DOT>-.35E-5</MEAN_MOTION_DOT><MEAN_MOTION_DDOT>0</MEAN_MOTION_DDOT></tleParameters></data></segment></body></omm>
<omm id="CCSDS_OMM_VERS" version="2.0">
<header><CREATION_DATE/><ORIGINATOR/></header><body><segment><metadata><OBJECT_NAME>ONEWEB-0163</OBJECT_NAME><OBJECT_ID>2021-025V</OBJECT_ID><CENTER_NAME>EARTH</CENTER_NAME><REF_FRAME>TEME</REF_FRAME><TIME_SYSTEM>UTC</TIME_SYSTEM><MEAN_ELEMENT_THEORY>SGP4</MEAN_ELEMENT_THEORY></metadata><data><meanElements><EPOCH>2025-02-15T23:01:15.490848</EPOCH><MEAN_MOTION>13.13468107</MEAN_MOTION><ECCENTRICITY>.0001987</ECCENTRICITY><INCLINATION>87.8881</INCLINATION><RA_OF_ASC_NODE>56.8835</RA_OF_ASC_NODE><ARG_OF_PERICENTER>81.3559</ARG_OF_PERICENTER><MEAN_ANOMALY>278.7795</MEAN_ANOMALY></meanElements><tleParameters><EPHEMERIS_TYPE>0</EPHEMERIS_TYPE><CLASSIFICATION_TYPE>U</CLASSIFICATION_TYPE><NORAD_CAT_ID>48061</NORAD_CAT_ID><ELEMENT_SET_NO>999</ELEMENT_SET_NO><REV_AT_EPOCH>18985</REV_AT_EPOCH><BSTAR>-.38304E-3</BSTAR><MEAN_MOTION_DOT>-.127E-5</MEAN_MOTION_DOT><MEAN_MOTION_DDOT>0</MEAN_MOTION_DDOT></tleParameters></data></segment></body></omm>

</ndm>
