ONEWEB-0158             
1 48054U 21025N   25046.73542973 -.00000191  00000+0 -55665-3 0  9990
2 48054  87.8882  56.9131 0001691  89.0332 271.0991 13.13468591189773
ONEWEB-0157             
1 48055U 21025P   25046.53070812 -.00000055  00000+0 -18516-3 0  9990
2 48055  87.8884  56.9661 0002113  78.1581 281.9785 13.13469473189691
ONEWEB-0162             
1 48056U 21025Q   25047.02745427  .00000137  00000+0  33998-3 0  9997
2 48056  87.8880  56.8595 0001816  88.7900 271.3437 13.13468097189704
ONEWEB-0155             
1 48057U 21025R   25046.74337088 -.00000246  00000+0 -70777-3 0  9995
2 48057  87.8879  56.9303 0002053  89.1039 271.0325 13.13468472189826
ONEWEB-0149             
1 48058U 21025S   25046.91635366  .00000000  00000+0 -34461-4 0  9993
2 48058  87.8880  56.8906 0001637  86.7820 273.3496 13.13471837189659
ONEWEB-0148             
1 48059U 21025T   25046.95761262 -.00000112  00000+0 -34132-3 0  9992
2 48059  87.8885  56.9019 0001468  69.1317 290.9969 13.13467141189786
ONEWEB-0160             
1 48060U 21025U   25047.04965533 -.00000350  00000+0 -99331-3 0  9998
2 48060  87.8882  56.8795 0001917 116.6480 243.4845 13.13467943189745
ONEWEB-0163             
1 48061U 21025V   25046.95920707 -.00000127  00000+0 -38304-3 0  9997
2 48061  87.8881  56.8835 0001987  81.3559 278.7795 13.13468107189852
